start=new Date('2023-03-22T00:00:00.000Z').valueOf();
sats=[{"PERIOD":"95.581","EPHEMERIS_TYPE":"0","REF_FRAME":"TEME","MEAN_MOTION_DOT":"0.00035968","TLE_LINE2":"2 45367  53.0548 351.7747 0002177  51.9553 308.1632 15.06575976166389","FILE":"3866953","DECAY_DATE":null,"MEAN_ANOMALY":"308.1632","CLASSIFICATION_TYPE":"U","APOAPSIS":"548.182","ARG_OF_PERICENTER":"51.9553","NORAD_CAT_ID":"45367","BSTAR":"0.00240980000000","RA_OF_ASC_NODE":"351.7747","PERIAPSIS":"545.167","EPOCH":"2023-03-21T22:29:45.680928","MEAN_ELEMENT_THEORY":"SGP4","TLE_LINE1":"1 45367U 20019H   23080.93733427  .00035968  00000-0  24098-2 0  9994","REV_AT_EPOCH":"16638","GP_ID":"228617233","OBJECT_NAME":"STARLINK-1273","TIME_SYSTEM":"UTC","ECCENTRICITY":"0.00021770","ELEMENT_SET_NO":"999","MEAN_MOTION_DDOT":"0.0000000000000","CENTER_NAME":"EARTH","OBJECT_TYPE":"PAYLOAD","RCS_SIZE":"LARGE","SEMIMAJOR_AXIS":"6924.809","LAUNCH_DATE":"2020-03-18","MEAN_MOTION":"15.06575976","COUNTRY_CODE":"US","OBJECT_ID":"2020-019H","INCLINATION":"53.0548","SITE":"AFETR"},{"TLE_LINE1":"1 45368U 20019J   23080.90795307  .00011935  00000-0  81960-3 0  9997","MEAN_ELEMENT_THEORY":"SGP4","PERIAPSIS":"546.726","EPOCH":"2023-03-21T21:47:27.145248","RA_OF_ASC_NODE":"351.9023","BSTAR":"0.00081960000000","TIME_SYSTEM":"UTC","OBJECT_NAME":"STARLINK-1276","REV_AT_EPOCH":"16638","GP_ID":"228615982","TLE_LINE2":"2 45368  53.0543 351.9023 0000869 111.2507 248.8575 15.06362725166381","FILE":"3866953","REF_FRAME":"TEME","MEAN_MOTION_DOT":"0.00011935","EPHEMERIS_TYPE":"0","PERIOD":"95.595","NORAD_CAT_ID":"45368","ARG_OF_PERICENTER":"111.2507","APOAPSIS":"547.930","DECAY_DATE":null,"MEAN_ANOMALY":"248.8575","CLASSIFICATION_TYPE":"U","COUNTRY_CODE":"US","MEAN_MOTION":"15.06362725","RCS_SIZE":"LARGE","LAUNCH_DATE":"2020-03-18","SEMIMAJOR_AXIS":"6925.463","SITE":"AFETR","OBJECT_ID":"2020-019J","INCLINATION":"53.0543","MEAN_MOTION_DDOT":"0.0000000000000","ELEMENT_SET_NO":"999","ECCENTRICITY":"0.00008690","OBJECT_TYPE":"PAYLOAD","CENTER_NAME":"EARTH"},{"CENTER_NAME":"EARTH","OBJECT_TYPE":"PAYLOAD","ELEMENT_SET_NO":"999","MEAN_MOTION_DDOT":"0.0000000000000","ECCENTRICITY":"0.00017360","OBJECT_ID":"2020-019K","INCLINATION":"53.0557","SITE":"AFETR","COUNTRY_CODE":"US","RCS_SIZE":"LARGE","SEMIMAJOR_AXIS":"6925.371","LAUNCH_DATE":"2020-03-18","MEAN_MOTION":"15.06392605","ARG_OF_PERICENTER":"131.2444","APOAPSIS":"548.438","NORAD_CAT_ID":"45369","DECAY_DATE":null,"CLASSIFICATION_TYPE":"U","MEAN_ANOMALY":"228.8694","REF_FRAME":"TEME","MEAN_MOTION_DOT":"0.00019204","TLE_LINE2":"2 45369  53.0557 351.9067 0001736 131.2444 228.8694 15.06392605166381","FILE":"3866953","EPHEMERIS_TYPE":"0","PERIOD":"95.593","OBJECT_NAME":"STARLINK-1277","TIME_SYSTEM":"UTC","REV_AT_EPOCH":"16638","GP_ID":"228616232","MEAN_ELEMENT_THEORY":"SGP4","TLE_LINE1":"1 45369U 20019K   23080.90701879  .00019204  00000-0  13049-2 0  9998","RA_OF_ASC_NODE":"351.9067","BSTAR":"0.00130490000000","EPOCH":"2023-03-21T21:46:06.423456","PERIAPSIS":"546.034"},{"NORAD_CAT_ID":"45370","APOAPSIS":"548.028","ARG_OF_PERICENTER":"101.0621","DECAY_DATE":null,"CLASSIFICATION_TYPE":"U","MEAN_ANOMALY":"259.0494","TLE_LINE2":"2 45370  53.0548 351.9530 0001129 101.0621 259.0494 15.06389235166385","FILE":"3866953","REF_FRAME":"TEME","MEAN_MOTION_DOT":"0.00018084","EPHEMERIS_TYPE":"0","PERIOD":"95.593","TIME_SYSTEM":"UTC","OBJECT_NAME":"STARLINK-1281","REV_AT_EPOCH":"16638","GP_ID":"228617482","TLE_LINE1":"1 45370U 20019L   23080.89689341  .00018084  00000-0  12302-2 0  9993","MEAN_ELEMENT_THEORY":"SGP4","EPOCH":"2023-03-21T21:31:31.590624","PERIAPSIS":"546.465","RA_OF_ASC_NODE":"351.9530","BSTAR":"0.00123020000000","OBJECT_TYPE":"PAYLOAD","CENTER_NAME":"EARTH","MEAN_MOTION_DDOT":"0.0000000000000","ELEMENT_SET_NO":"999","ECCENTRICITY":"0.00011290","SITE":"AFETR","INCLINATION":"53.0548","OBJECT_ID":"2020-019L","COUNTRY_CODE":"US","MEAN_MOTION":"15.06389235","RCS_SIZE":"LARGE","LAUNCH_DATE":"2020-03-18","SEMIMAJOR_AXIS":"6925.382"},{"ECCENTRICITY":"0.00015170","MEAN_MOTION_DDOT":"0.0000000000000","ELEMENT_SET_NO":"999","OBJECT_TYPE":"PAYLOAD","CENTER_NAME":"EARTH","MEAN_MOTION":"15.06392239","RCS_SIZE":"LARGE","SEMIMAJOR_AXIS":"6925.372","LAUNCH_DATE":"2020-03-18","COUNTRY_CODE":"US","SITE":"AFETR","OBJECT_ID":"2020-019M","INCLINATION":"53.0539","PERIOD":"95.593","EPHEMERIS_TYPE":"0","TLE_LINE2":"2 45371  53.0539 351.8124 0001517  97.1715 262.9446 15.06392239166382","FILE":"3866953","REF_FRAME":"TEME","MEAN_MOTION_DOT":"0.00025062","DECAY_DATE":null,"CLASSIFICATION_TYPE":"U","MEAN_ANOMALY":"262.9446","NORAD_CAT_ID":"45371","ARG_OF_PERICENTER":"97.1715","APOAPSIS":"548.288","PERIAPSIS":"546.187","EPOCH":"2023-03-21T22:12:39.023424","BSTAR":"0.00169580000000","RA_OF_ASC_NODE":"351.8124","TLE_LINE1":"1 45371U 20019M   23080.92545166  .00025062  00000-0  16958-2 0  9999","MEAN_ELEMENT_THEORY":"SGP4","REV_AT_EPOCH":"16638","GP_ID":"228617733","TIME_SYSTEM":"UTC","OBJECT_NAME":"STARLINK-1287"},{"ECCENTRICITY":"0.00009420","MEAN_MOTION_DDOT":"0.0000000000000","ELEMENT_SET_NO":"999","OBJECT_TYPE":"PAYLOAD","CENTER_NAME":"EARTH","MEAN_MOTION":"15.06459527","RCS_SIZE":"LARGE","SEMIMAJOR_AXIS":"6925.166","LAUNCH_DATE":"2020-03-18","COUNTRY_CODE":"US","SITE":"AFETR","INCLINATION":"53.0550","OBJECT_ID":"2020-019N","EPHEMERIS_TYPE":"0","PERIOD":"95.588","TLE_LINE2":"2 45372  53.0550 355.3297 0000942 130.1647 229.9425 15.06459527166260","FILE":"3866730","REF_FRAME":"TEME","MEAN_MOTION_DOT":"0.00035300","DECAY_DATE":null,"CLASSIFICATION_TYPE":"U","MEAN_ANOMALY":"229.9425","NORAD_CAT_ID":"45372","ARG_OF_PERICENTER":"130.1647","APOAPSIS":"547.683","EPOCH":"2023-03-21T03:28:44.696064","PERIAPSIS":"546.379","BSTAR":"0.00237310000000","RA_OF_ASC_NODE":"355.3297","TLE_LINE1":"1 45372U 20019N   23080.14496176  .00035300  00000-0  23731-2 0  9993","MEAN_ELEMENT_THEORY":"SGP4","REV_AT_EPOCH":"16626","GP_ID":"228586228","OBJECT_NAME":"STARLINK-1288","TIME_SYSTEM":"UTC"},{"ECCENTRICITY":"0.00012730","MEAN_MOTION_DDOT":"0.0000000000000","ELEMENT_SET_NO":"999","OBJECT_TYPE":"PAYLOAD","CENTER_NAME":"EARTH","MEAN_MOTION":"15.06389594","SEMIMAJOR_AXIS":"6925.380","LAUNCH_DATE":"2020-03-18","RCS_SIZE":"LARGE","COUNTRY_CODE":"US","SITE":"AFETR","OBJECT_ID":"2020-019P","INCLINATION":"53.0545","EPHEMERIS_TYPE":"0","PERIOD":"95.593","FILE":"3866953","TLE_LINE2":"2 45373  53.0545 351.8407 0001273  91.2288 268.8847 15.06389594166384","MEAN_MOTION_DOT":"0.00006786","REF_FRAME":"TEME","CLASSIFICATION_TYPE":"U","MEAN_ANOMALY":"268.8847","DECAY_DATE":null,"NORAD_CAT_ID":"45373","APOAPSIS":"548.127","ARG_OF_PERICENTER":"91.2288","PERIAPSIS":"546.364","EPOCH":"2023-03-21T22:08:41.225568","BSTAR":"0.00047416000000","RA_OF_ASC_NODE":"351.8407","TLE_LINE1":"1 45373U 20019P   23080.92269937  .00006786  00000-0  47416-3 0  9996","MEAN_ELEMENT_THEORY":"SGP4","GP_ID":"228616731","REV_AT_EPOCH":"16638","TIME_SYSTEM":"UTC","OBJECT_NAME":"STARLINK-1295"},{"CLASSIFICATION_TYPE":"U","MEAN_ANOMALY":"239.9781","DECAY_DATE":null,"APOAPSIS":"548.142","ARG_OF_PERICENTER":"120.1344","NORAD_CAT_ID":"45374","EPHEMERIS_TYPE":"0","PERIOD":"95.592","REF_FRAME":"TEME","MEAN_MOTION_DOT":"0.00028881","FILE":"3866953","TLE_LINE2":"2 45374  53.0551 351.8517 0001370 120.1344 239.9781 15.06406522166384","GP_ID":"228616983","REV_AT_EPOCH":"16638","TIME_SYSTEM":"UTC","OBJECT_NAME":"STARLINK-1300","BSTAR":"0.00194950000000","RA_OF_ASC_NODE":"351.8517","PERIAPSIS":"546.245","EPOCH":"2023-03-21T22:03:23.363424","MEAN_ELEMENT_THEORY":"SGP4","TLE_LINE1":"1 45374U 20019Q   23080.91902041  .00028881  00000-0  19495-2 0  9991","CENTER_NAME":"EARTH","OBJECT_TYPE":"PAYLOAD","ECCENTRICITY":"0.00013700","ELEMENT_SET_NO":"999","MEAN_MOTION_DDOT":"0.0000000000000","INCLINATION":"53.0551","OBJECT_ID":"2020-019Q","SITE":"AFETR","SEMIMAJOR_AXIS":"6925.329","LAUNCH_DATE":"2020-03-18","RCS_SIZE":"LARGE","MEAN_MOTION":"15.06406522","COUNTRY_CODE":"US"},{"ECCENTRICITY":"0.00008000","ELEMENT_SET_NO":"999","MEAN_MOTION_DDOT":"0.0000000000000","CENTER_NAME":"EARTH","OBJECT_TYPE":"PAYLOAD","LAUNCH_DATE":"2020-03-18","SEMIMAJOR_AXIS":"6925.402","RCS_SIZE":"LARGE","MEAN_MOTION":"15.06382501","COUNTRY_CODE":"US","OBJECT_ID":"2020-019R","INCLINATION":"53.0550","SITE":"AFETR","EPHEMERIS_TYPE":"0","PERIOD":"95.593","REF_FRAME":"TEME","MEAN_MOTION_DOT":"0.00020967","FILE":"3866953","TLE_LINE2":"2 45375  53.0550 351.7901 0000800 125.4948 234.6115 15.06382501166388","CLASSIFICATION_TYPE":"U","MEAN_ANOMALY":"234.6115","DECAY_DATE":null,"APOAPSIS":"547.821","ARG_OF_PERICENTER":"125.4948","NORAD_CAT_ID":"45375","RA_OF_ASC_NODE":"351.7901","BSTAR":"0.00142300000000","EPOCH":"2023-03-21T22:24:36.643680","PERIAPSIS":"546.713","MEAN_ELEMENT_THEORY":"SGP4","TLE_LINE1":"1 45375U 20019R   23080.93375745  .00020967  00000-0  14230-2 0  9998","GP_ID":"228617234","REV_AT_EPOCH":"16638","OBJECT_NAME":"STARLINK-1302","TIME_SYSTEM":"UTC"},{"COUNTRY_CODE":"US","SEMIMAJOR_AXIS":"6925.209","LAUNCH_DATE":"2020-03-18","RCS_SIZE":"LARGE","MEAN_MOTION":"15.06445670","INCLINATION":"53.0547","OBJECT_ID":"2020-019S","SITE":"AFETR","ELEMENT_SET_NO":"999","MEAN_MOTION_DDOT":"0.0000000000000","ECCENTRICITY":"0.00013410","CENTER_NAME":"EARTH","OBJECT_TYPE":"PAYLOAD","MEAN_ELEMENT_THEORY":"SGP4","TLE_LINE1":"1 45376U 20019S   23080.15602558  .00036958  00000-0  24840-2 0  9993","BSTAR":"0.00248400000000","RA_OF_ASC_NODE":"355.2816","PERIAPSIS":"546.145","EPOCH":"2023-03-21T03:44:40.610112","TIME_SYSTEM":"UTC","OBJECT_NAME":"STARLINK-1304","GP_ID":"228585729","REV_AT_EPOCH":"16626","MEAN_MOTION_DOT":"0.00036958","REF_FRAME":"TEME","FILE":"3866730","TLE_LINE2":"2 45376  53.0547 355.2816 0001341  84.9134 275.2008 15.06445670166262","PERIOD":"95.589","EPHEMERIS_TYPE":"0","ARG_OF_PERICENTER":"84.9134","APOAPSIS":"548.002","NORAD_CAT_ID":"45376","MEAN_ANOMALY":"275.2008","CLASSIFICATION_TYPE":"U","DECAY_DATE":null}];
